[{"OBJECT_NAME":"STARLINK-36236","OBJECT_ID":"2025-298D","EPOCH":"2026-03-09T22:52:09.740064","MEAN_MOTION":14.98333747,"ECCENTRICITY":0.00038974,"INCLINATION":70.0013,"RA_OF_ASC_NODE":13.9198,"ARG_OF_PERICENTER":255.8336,"MEAN_ANOMALY":104.2391,"EPHEMERIS_TYPE":0,"CLASSIFICATION_TYPE":"U","NORAD_CAT_ID":67078,"ELEMENT_SET_NO":999,"REV_AT_EPOCH":1325,"BSTAR":0.00052810907,"MEAN_MOTION_DOT":6.215e-5,"MEAN_MOTION_DDOT":0},{"OBJECT_NAME":"COSMOS 374 DEB","OBJECT_ID":"1970-089CW","EPOCH":"2026-03-09T03:15:05.416704","MEAN_MOTION":14.81622526,"ECCENTRICITY":0.02351408,"INCLINATION":62.872,"RA_OF_ASC_NODE":339.5893,"ARG_OF_PERICENTER":12.2958,"MEAN_ANOMALY":348.3731,"EPHEMERIS_TYPE":0,"CLASSIFICATION_TYPE":"U","NORAD_CAT_ID":14122,"ELEMENT_SET_NO":999,"REV_AT_EPOCH":22578,"BSTAR":0.0042555676,"MEAN_MOTION_DOT":0.00054686,"MEAN_MOTION_DDOT":0}]
